INTELSAT 701 (IS-701)   
1 22871U 93066A   17286.46577834 -.00000146  00000-0  00000-0 0  9994
2 22871   4.4189  66.4379 0003336 169.0211 134.7100  0.99324668 87624
INTELSAT 26 (IS-26)     
1 24732U 97007A   17286.59082934 -.00000029  00000-0  00000-0 0  9997
2 24732   7.6388  49.1675 0004447 183.3931  68.2889  1.00271499 40964
GALAXY 25 (G-25)        
1 24812U 97026A   17286.19759496 -.00000186  00000-0  00000-0 0  9991
2 24812   0.0164 131.0977 0003455  62.9722 165.9414  1.00271530 74609
INTELSAT 5 (IS-5)       
1 24916U 97046A   17285.70075917 -.00000162  00000-0  00000+0 0  9996
2 24916   3.7717  70.4844 0003788 154.8216 205.3523  1.00272391 73835
INTELSAT 805 (IS-805)   
1 25371U 98037A   17286.40624997 -.00000055  00000-0  00000-0 0  9991
2 25371   0.2593  93.8185 0003337 126.7722 116.8302  1.00271170 70777
AFRISTAR                
1 25515U 98063A   17286.16219420  .00000103  00000-0  00000+0 0  9996
2 25515   3.5231  69.3146 0003900 140.8218 251.1598  1.00272002 69357
INTELSAT 8 (IS-8)       
1 25522U 98065A   17286.46018319 -.00000142  00000-0  00000-0 0  9998
2 25522   1.2716  87.2936 0297000 222.7743 111.6529  0.95185141 14649
GALAXY 11 (G-11)        
1 26038U 99071A   17286.31090944  .00000112  00000-0  00000-0 0  9993
2 26038   0.0782  78.6157 0001035 232.6169 227.6855  1.00272023 65339
SIRIUS-1                
1 26390U 00035A   17285.61021747 -.00000010  00000-0  00000-0 0  9991
2 26390  59.5002 223.8797 0003064 256.0574 290.4743  1.57876838 21851
INTELSAT 9 (IS-9)       
1 26451U 00043A   17286.30410476 -.00000237  00000-0  00000+0 0  9996
2 26451   3.7597  70.7030 0003151 153.3388 238.0168  1.00271053 63072
INTELSAT 12 (IS-12)     
1 26590U 00068A   17286.63002117  .00000112  00000-0  00000-0 0  9994
2 26590   0.7324  92.1407 0003277 134.6031  67.4536  1.00271234 19944
INTELSAT 1R (IS-1R)     
1 26608U 00072A   17286.38965521 -.00000131  00000-0  00000-0 0  9990
2 26608   0.5523  94.4457 0000183 310.7425 279.8183  1.00177625  9541
INTELSAT 10 (IS-10)     
1 26766U 01019A   17286.57837126  .00000102  00000-0  00000-0 0  9994
2 26766   1.7612  84.5767 0001781 148.9108  44.5848  1.00274211 13860
INTELSAT 901 (IS-901)   
1 26824U 01024A   17286.29773986 -.00000165  00000-0  00000-0 0  9997
2 26824   0.0209 266.6363 0002667 310.5400 254.0798  1.00271755 59929
INTELSAT 902 (IS-902)   
1 26900U 01039A   17286.58799339  .00000007  00000-0  00000-0 0  9994
2 26900   0.0414  97.8155 0002880  99.8938  98.3176  1.00272867 58940
DIRECTV 4S              
1 26985U 01052A   17286.45535302 -.00000138  00000-0  00000+0 0  9991
2 26985   0.0175 138.7340 0002870  71.8925 234.3285  1.00271656 58222
INTELSAT 904 (IS-904)   
1 27380U 02007A   17286.63002626  .00000111  00000-0  00000-0 0  9991
2 27380   0.0191 148.2899 0002635  59.4354  86.5793  1.00272656 19995
INTELSAT 903 (IS-903)   
1 27403U 02016A   17286.69837622 -.00000249  00000-0  00000+0 0  9997
2 27403   0.0917  93.3058 0001915  60.5455  88.5199  1.00271903 56873
DIRECTV 5 (TEMPO 1)     
1 27426U 02023A   17286.24475013 -.00000080  00000-0  00000-0 0  9997
2 27426   0.0206 208.8782 0003342   5.3081 145.7922  1.00270206 56554
INTELSAT 905 (IS-905)   
1 27438U 02027A   17286.43452059 -.00000209  00000-0  00000-0 0  9993
2 27438   0.0176 236.6771 0002614 329.3754 308.0890  1.00271459 19601
GALAXY 3C (G-3C)        
1 27445U 02030A   17286.20296375 -.00000175  00000-0  00000-0 0  9999
2 27445   0.0195 276.6357 0001970  40.5795  42.7905  1.00270291 14804
INTELSAT 906 (IS-906)   
1 27513U 02041A   17286.58799339 -.00000011  00000-0  00000-0 0  9995
2 27513   0.0301 253.5336 0002917 308.5299  96.1232  1.00271299 55268
INTELSAT 907 (IS-907)   
1 27683U 03007A   17286.01586738 -.00000226  00000-0  00000-0 0  9999
2 27683   0.0117 224.1346 0002667 340.8917 154.9820  1.00270989 53678
GALAXY 12 (G-12)        
1 27715U 03013B   17286.41851737  .00000034  00000-0  00000-0 0  9996
2 27715   0.0451 101.2045 0002244 122.2993 180.3431  1.00271783 20367
GALAXY 23 (G-23)        
1 27854U 03034A   17286.46018319 -.00000012  00000-0  00000-0 0  9996
2 27854   0.0254 258.4499 0002954 305.6090 222.8509  1.00271928 51962
GALAXY 13 (HORIZONS-1)  
1 27954U 03044A   17286.40173286  .00000023  00000-0  00000+0 0  9997
2 27954   0.0265 129.9930 0001889  87.2215 182.5659  1.00272385 51387
DIRECTV 7S              
1 28238U 04016A   17286.46018319 -.00000024  00000-0  00000+0 0  9996
2 28238   0.0414  56.5049 0003049 154.4516 217.8636  1.00272396 49292
INTELSAT 10-02          
1 28358U 04022A   17286.42479973 -.00000035  00000-0  00000-0 0  9992
2 28358   0.0241 137.2220 0001807 162.4770 234.4356  1.00271947 48870
XM-3 (RHYTHM)           
1 28626U 05008A   17286.31993694 -.00000230  00000-0  00000-0 0  9991
2 28626   0.0105  97.3877 0000366 133.5026 181.2829  1.00270546 10869
SPACEWAY 1              
1 28644U 05015A   17286.40235795 -.00000126  00000-0  00000-0 0  9994
2 28644   0.0108 209.9110 0000124 206.1460   8.0184  1.00269929 14805
DIRECTV 8               
1 28659U 05019A   17286.21905946 -.00000139  00000-0  00000-0 0  9999
2 28659   0.0145 199.0590 0003401  18.0091 142.9084  1.00270078 45363
GALAXY 28 (G-28)        
1 28702U 05022A   17286.33070163 -.00000209  00000-0  00000+0 0  9996
2 28702   0.0200 212.5868 0000129  83.6973 115.8372  1.00269436 45055
GALAXY 14 (G-14)        
1 28790U 05030A   17286.40178623  .00000012  00000-0  00000+0 0  9991
2 28790   0.0428  86.3779 0002510 123.9086 191.5261  1.00270312 44525
GALAXY 15 (G-15)        
1 28884U 05041A   17286.42340942  .00000054  00000-0  00000-0 0  9991
2 28884   0.0416  90.7950 0001480 125.5854 185.2373  1.00271794 43979
SPACEWAY 2              
1 28903U 05046B   17286.43541112 -.00000151  00000-0  00000+0 0  9999
2 28903   0.0462  49.2398 0000424 262.3245 128.3242  1.00271309 43726
GALAXY 16 (G-16)        
1 29236U 06023A   17286.33104885 -.00000151  00000-0  00000+0 0  9996
2 29236   0.0216 261.8736 0002859 310.0039 190.3833  1.00269416 41490
DIRECTV 9S              
1 29494U 06043A   17286.45535302 -.00000138  00000-0  00000-0 0  9995
2 29494   0.0095 209.0708 0003116 356.2902 239.6915  1.00271734 19626
XM-4 (BLUES)            
1 29520U 06049A   17286.46018319 -.00000048  00000-0  00000-0 0  9996
2 29520   0.0422  46.2958 0000364 283.9169 102.4520  1.00271150 19701
GALAXY 17 (G-17)        
1 31307U 07016B   17286.49421094 -.00000199  00000-0  00000-0 0  9995
2 31307   0.0397  17.2869 0003101 184.5542 267.3373  1.00272257 38189
DIRECTV 10              
1 31862U 07032A   17286.22465143 -.00000127  00000-0  00000+0 0  9993
2 31862   0.0028 296.5047 0000398 317.7119 105.7790  1.00270494 37639
SPACEWAY 3              
1 32018U 07036A   17286.49421094 -.00000176  00000-0  00000+0 0  9991
2 32018   0.0306  63.5341 0000159 309.6373  92.0395  1.00271268 37356
INTELSAT 11 (IS-11)     
1 32253U 07044B   17286.31920787 -.00000293  00000-0  00000+0 0  9995
2 32253   0.0189 214.0913 0001956  20.0838 219.8502  1.00271386 36753
HORIZONS-2              
1 32388U 07063B   17286.46886567 -.00000207  00000-0  00000-0 0  9994
2 32388   0.0126 186.8355 0002513  23.4821  65.5288  1.00269023 36086
DIRECTV 11              
1 32729U 08013A   17286.43541112 -.00000151  00000-0  00000+0 0  9997
2 32729   0.0107  91.7568 0000050 112.5199 235.4878  1.00271469 35164
GALAXY 18 (G-18)        
1 32951U 08024A   17286.28045410  .00000001  00000-0  00000-0 0  9993
2 32951   0.0095 181.8884 0002942  21.6964 156.4225  1.00272690 14129
INTELSAT 25 (IS-25)     
1 33153U 08034A   17286.02694685 -.00000247  00000-0  00000+0 0  9997
2 33153   0.0093 225.6896 0002521  11.1922 123.1154  1.00272565 33868
GALAXY 19 (G-19)        
1 33376U 08045A   17286.20841912 -.00000163  00000-0  00000-0 0  9991
2 33376   0.0130 235.5478 0002904 331.3587 153.0994  1.00268701 33177
SIRIUS FM-5             
1 35493U 09034A   17286.49421094 -.00000225  00000-0  00000-0 0  9997
2 35493   0.0167 281.2883 0000675  77.6753 115.0657  1.00271444 14963
INTELSAT 14 (IS-14)     
1 36097U 09064A   17286.06433599 -.00000297  00000-0  00000+0 0  9995
2 36097   0.0133 249.4451 0002531 323.0698 147.4907  1.00271655 28936
INTELSAT 15 (IS-15)     
1 36106U 09067A   17286.56667014 -.00000210  00000-0  00000-0 0  9991
2 36106   0.0128 181.6312 0002271  37.8095  92.0221  1.00269851  9530
DIRECTV 12              
1 36131U 09075A   17286.40236557 -.00000127  00000-0  00000+0 0  9991
2 36131   0.0120 218.8345 0000284  72.6680 132.6998  1.00269999 28613
INTELSAT 16 (IS-16)     
1 36397U 10006A   17286.35783109 -.00000309  00000-0  00000-0 0  9998
2 36397   0.0317  91.4002 0001703 129.2784 232.1679  1.00270284 28094
XM-5                    
1 37185U 10053A   17286.49421094 -.00000230  00000-0  00000+0 0  9995
2 37185   0.0003 120.1882 0001940 232.7333 122.0396  1.00271648 25670
INTELSAT 17 (IS-17)     
1 37238U 10065B   17286.59920552 -.00000027  00000-0  00000-0 0  9996
2 37238   0.0174 185.4248 0003005   9.4877 109.1613  1.00272538 21655
INTELSAT NEW DAWN       
1 37392U 11016A   17286.41003979  .00000131  00000-0  00000-0 0  9995
2 37392   0.0217 231.3241 0001657  30.2382 301.0445  1.00274889 21536
INTELSAT 18 (IS-18)     
1 37834U 11056A   17286.43216961  .00000029  00000-0  00000-0 0  9995
2 37834   0.0178 162.3821 0001920  56.7825 138.6369  1.00273863 22168
INTELSAT 22 (IS-22)     
1 38098U 12011A   17285.73994345 -.00000082  00000-0  00000+0 0  9990
2 38098   0.0058 254.1687 0002227 304.9798 160.8431  1.00270599 20276
INTELSAT 19 (IS-19)     
1 38356U 12030A   17285.47982934 -.00000079  00000-0  00000+0 0  9996
2 38356   0.0096 105.3119 0002918 103.7483 150.9462  1.00272064 19737
INTELSAT 20 (IS-20)     
1 38740U 12043A   17285.74997585 -.00000048  00000-0  00000-0 0  9992
2 38740   0.0141 172.4662 0002597   9.1885 178.3664  1.00271433 18995
INTELSAT 21 (IS-21)     
1 38749U 12045A   17286.10041720 -.00000309  00000-0  00000+0 0  9994
2 38749   0.0208 200.2280 0002245   8.1748 151.5850  1.00271600 18863
INTELSAT 23 (IS-23)     
1 38867U 12057A   17286.08655115 -.00000309  00000-0  00000+0 0  9994
2 38867   0.0121 231.8669 0001804 337.8198 150.3243  1.00270687 18339
SIRIUS FM-6             
1 39360U 13058A   17286.26140131 -.00000041  00000-0  00000+0 0  9995
2 39360   0.0259 236.7227 0000418 215.1960 268.0862  1.00270236 14575
INTELSAT 30 (IS-30)     
1 40271U 14062A   17286.36590367 -.00000175  00000-0  00000-0 0  9994
2 40271   0.0180 201.4127 0001760 246.1114 331.2574  1.00270383 10904
INTELSAT 34 (IS-34)     
1 40874U 15039A   17286.09350064 -.00000309  00000-0  00000+0 0  9994
2 40874   0.0215 222.6781 0000329  85.7335  51.5854  1.00269715  7901
INTELSAT 29E (IS-29E)   
1 41308U 16004A   17286.07822501 -.00000306  00000-0  00000+0 0  9995
2 41308   0.0094 211.5105 0001741 356.7937 151.7076  1.00271407  6385
INTELSAT 31 (IS-31)     
1 41581U 16035A   17280.21945154 -.00000161  00000-0  00000+0 0  9991
2 41581   0.0182 231.6072 0001797   3.4286 124.9790  1.00270165  4862
INTELSAT 36 (IS-36)     
1 41747U 16053A   17285.74993401 -.00000047  00000-0  00000-0 0  9990
2 41747   0.0116 251.8395 0003267  81.8565  26.2875  1.00268555  4216
INTELSAT 33E (IS-33E)   
1 41748U 16053B   17285.77348221  .00000025  00000-0  00000-0 0  9993
2 41748   0.0295  66.0271 0003358 153.3845 140.5859  1.00272338  4486
INTELSAT 32E (IS-32E)   
1 41945U 17007B   17286.05938385 -.00000293  00000-0  00000+0 0  9997
2 41945   0.0209 201.8633 0001461 342.4939 175.6415  1.00270140  2472
INTELSAT 35E (IS-35E)   
1 42818U 17041A   17286.03528703 -.00000262  00000-0  00000-0 0  9999
2 42818   0.0155 254.4146 0001990 315.9057 149.6894  1.00271306  1104
INTELSAT 37E (IS-37E)   
1 42950U 17059A   17286.79211910 -.00000148  00000-0  00000+0 0  9999
2 42950   0.1099 196.7735 1595201 154.7120 199.3747  1.25252802   267
